{
  "type": "FeatureCollection",
  "features": [
    {
      "type": "Feature",
      "properties": {
        "sectionName": "朔黄铁路全线",
        "direction": "up",
        "sectionId": "SHH-FULL-UP",
        "lengthKm": 618.3
      },
      "geometry": {
        "type": "LineString",
        "coordinates": [
          [
            111.76,
            39.09
          ],
          [
            112.1967639,
            39.0800326
          ],
          [
            112.2068071,
            39.084938
          ],
          [
            112.2128713,
            39.0851963
          ],
          [
            112.2230215,
            39.0800335
          ],
          [
            112.2305629,
            39.0782104
          ],
          [
            112.237294,
            39.0791689
          ],
          [
            112.2432458,
            39.0786151
          ],
          [
            112.2581986,
            39.0682958
          ],
          [
            112.2689861,
            39.0549921
          ],
          [
            112.2701071,
            39.0471307
          ],
          [
            112.2802302,
            39.0343099
          ],
          [
            112.2824588,
            39.0219103
          ],
          [
            112.287818,
            39.0148186
          ],
          [
            112.2914172,
            39.0068174
          ],
          [
            112.2885373,
            38.9993919
          ],
          [
            112.280687,
            38.9869921
          ],
          [
            112.2807527,
            38.9846056
          ],
          [
            112.283062,
            38.982602
          ],
          [
            112.2894363,
            38.9829016
          ],
          [
            112.2950257,
            38.9856907
          ],
          [
            112.3062152,
            38.9862368
          ],
          [
            112.4054185,
            38.9528704
          ],
          [
            112.448051,
            38.9474725
          ],
          [
            112.4509393,
            38.9456072
          ],
          [
            112.4549086,
            38.9381583
          ],
          [
            112.4669977,
            38.930721
          ],
          [
            112.4740788,
            38.9315389
          ],
          [
            112.4901786,
            38.9393131
          ],
          [
            112.4920651,
            38.9420254
          ],
          [
            112.4915931,
            38.9489679
          ],
          [
            112.4928791,
            38.9526024
          ],
          [
            112.4980029,
            38.9536197
          ],
          [
            112.5028434,
            38.9511466
          ],
          [
            112.5044646,
            38.9484344
          ],
          [
            112.5039242,
            38.9460177
          ],
          [
            112.4876835,
            38.9245703
          ],
          [
            112.4831095,
            38.9201409
          ],
          [
            112.4822584,
            38.911054
          ],
          [
            112.4831263,
            38.9080509
          ],
          [
            112.5138999,
            38.8868088
          ],
          [
            112.5235681,
            38.8854392
          ],
          [
            112.5316163,
            38.8771196
          ],
          [
            112.5433843,
            38.8727096
          ],
          [
            112.5496952,
            38.8663903
          ],
          [
            112.5638904,
            38.8644013
          ],
          [
            112.5685363,
            38.8620574
          ],
          [
            112.5703576,
            38.8593589
          ],
          [
            112.5698685,
            38.8541915
          ],
          [
            112.5725245,
            38.8512629
          ],
          [
            112.592256,
            38.8453133
          ],
          [
            112.595159,
            38.8457865
          ],
          [
            112.600889,
            38.8498745
          ],
          [
            112.606901,
            38.8516175
          ],
          [
            112.6124841,
            38.8499337
          ],
          [
            112.6136739,
            38.8474428
          ],
          [
            112.6131592,
            38.845287
          ],
          [
            112.6078764,
            38.8406861
          ],
          [
            112.6040873,
            38.8355852
          ],
          [
            112.6010156,
            38.8342377
          ],
          [
            112.5934796,
            38.8344283
          ],
          [
            112.5857977,
            38.8286433
          ],
          [
            112.5862196,
            38.8250209
          ],
          [
            112.5908442,
            38.8218585
          ],
          [
            112.5946157,
            38.8174707
          ],
          [
            112.5985851,
            38.8045618
          ],
          [
            112.6047256,
            38.8001547
          ],
          [
            112.6078279,
            38.7928356
          ],
          [
            112.6170082,
            38.7858508
          ],
          [
            112.6213918,
            38.7807448
          ],
          [
            112.6221252,
            38.7725496
          ],
          [
            112.6233813,
            38.7700717
          ],
          [
            112.6469029,
            38.7576014
          ],
          [
            112.6570928,
            38.749283
          ],
          [
            112.6601252,
            38.7288829
          ],
          [
            112.6778567,
            38.7047682
          ],
          [
            112.690192,
            38.6794366
          ],
          [
            112.7045494,
            38.6589722
          ],
          [
            112.7066261,
            38.6540628
          ],
          [
            112.7089809,
            38.6523814
          ],
          [
            112.7285131,
            38.6469229
          ],
          [
            112.7460621,
            38.6268733
          ],
          [
            112.7489721,
            38.6248838
          ],
          [
            112.7597474,
            38.6204013
          ],
          [
            112.7743631,
            38.6178806
          ],
          [
            112.7826123,
            38.614573
          ],
          [
            112.7910796,
            38.6156065
          ],
          [
            112.7974407,
            38.6147968
          ],
          [
            112.8193799,
            38.6057774
          ],
          [
            112.8334117,
            38.5944325
          ],
          [
            112.8527068,
            38.5852162
          ],
          [
            112.8961177,
            38.5684691
          ],
          [
            112.9003218,
            38.567753
          ],
          [
            112.9629712,
            38.5795077
          ],
          [
            113.0439052,
            38.6102485
          ],
          [
            113.0627923,
            38.6223702
          ],
          [
            113.0716372,
            38.630624
          ],
          [
            113.0822012,
            38.6334665
          ],
          [
            113.0895711,
            38.637557
          ],
          [
            113.1339826,
            38.6439034
          ],
          [
            113.1389975,
            38.6434675
          ],
          [
            113.1728142,
            38.6177719
          ],
          [
            113.1851654,
            38.612663
          ],
          [
            113.1901314,
            38.6081823
          ],
          [
            113.1922571,
            38.6003799
          ],
          [
            113.1945531,
            38.5978812
          ],
          [
            113.20702,
            38.5907955
          ],
          [
            113.216382,
            38.5880789
          ],
          [
            113.2293467,
            38.5806148
          ],
          [
            113.231387,
            38.5787279
          ],
          [
            113.2327914,
            38.5734743
          ],
          [
            113.2349823,
            38.5707475
          ],
          [
            113.2425978,
            38.5664612
          ],
          [
            113.2470885,
            38.5335972
          ],
          [
            113.2491059,
            38.528965
          ],
          [
            113.2530474,
            38.5257938
          ],
          [
            113.267226,
            38.5234156
          ],
          [
            113.276599,
            38.516651
          ],
          [
            113.2837818,
            38.5131393
          ],
          [
            113.2870035,
            38.5045792
          ],
          [
            113.3125811,
            38.4553814
          ],
          [
            113.312282,
            38.4518883
          ],
          [
            113.3044177,
            38.4465194
          ],
          [
            113.3023816,
            38.4430227
          ],
          [
            113.3029397,
            38.4372492
          ],
          [
            113.3059934,
            38.433874
          ],
          [
            113.3343891,
            38.4306111
          ],
          [
            113.3409684,
            38.4313529
          ],
          [
            113.3482855,
            38.4338406
          ],
          [
            113.3514289,
            38.4370294
          ],
          [
            113.3557982,
            38.4557548
          ],
          [
            113.3587758,
            38.4582774
          ],
          [
            113.3621053,
            38.4584111
          ],
          [
            113.3716744,
            38.4551841
          ],
          [
            113.3810728,
            38.4560242
          ],
          [
            113.3836692,
            38.4539406
          ],
          [
            113.3871668,
            38.4475213
          ],
          [
            113.3935193,
            38.4441106
          ],
          [
            113.4182033,
            38.4433007
          ],
          [
            113.4319043,
            38.4408222
          ],
          [
            113.4762317,
            38.4371421
          ],
          [
            113.4869865,
            38.4329334
          ],
          [
            113.496185,
            38.4343103
          ],
          [
            113.5091469,
            38.4314862
          ],
          [
            113.525816,
            38.4303233
          ],
          [
            113.5327147,
            38.4254591
          ],
          [
            113.551577,
            38.4227896
          ],
          [
            113.5658764,
            38.4180186
          ],
          [
            113.5746545,
            38.4184372
          ],
          [
            113.5927837,
            38.4159697
          ],
          [
            113.6027084,
            38.4079049
          ],
          [
            113.6144626,
            38.4080445
          ],
          [
            113.6211962,
            38.4044558
          ],
          [
            113.6463234,
            38.3970231
          ],
          [
            113.6967697,
            38.3842404
          ],
          [
            113.7083573,
            38.3860942
          ],
          [
            113.7183345,
            38.3930109
          ],
          [
            113.7280829,
            38.3954558
          ],
          [
            113.7459988,
            38.3904188
          ],
          [
            113.7537255,
            38.3905326
          ],
          [
            113.7641806,
            38.3870514
          ],
          [
            113.7898915,
            38.3748642
          ],
          [
            113.8270216,
            38.3667844
          ],
          [
            113.8328184,
            38.3643925
          ],
          [
            113.8411973,
            38.3577534
          ],
          [
            113.8530942,
            38.3439817
          ],
          [
            113.8536169,
            38.3293828
          ],
          [
            113.8498672,
            38.3216614
          ],
          [
            113.8573553,
            38.3117096
          ],
          [
            113.8575182,
            38.3025635
          ],
          [
            113.8587024,
            38.2998487
          ],
          [
            113.8679849,
            38.2913479
          ],
          [
            113.8737177,
            38.2897093
          ],
          [
            113.8957054,
            38.2885793
          ],
          [
            113.913377,
            38.2851001
          ],
          [
            113.9162362,
            38.2834593
          ],
          [
            113.9203224,
            38.2783033
          ],
          [
            113.9276667,
            38.2741591
          ],
          [
            113.9384029,
            38.2728935
          ],
          [
            113.95092,
            38.2740531
          ],
          [
            113.9670492,
            38.2666856
          ],
          [
            113.9691115,
            38.2648366
          ],
          [
            113.9721121,
            38.2579806
          ],
          [
            113.9777778,
            38.2549659
          ],
          [
            113.9975957,
            38.2547853
          ],
          [
            114.0186706,
            38.2514291
          ],
          [
            114.0531307,
            38.2592592
          ],
          [
            114.0617031,
            38.2635093
          ],
          [
            114.1311746,
            38.2600098
          ],
          [
            114.1490002,
            38.2613384
          ],
          [
            114.1639021,
            38.2639544
          ],
          [
            114.1687262,
            38.267195
          ],
          [
            114.1858997,
            38.3057719
          ],
          [
            114.206965,
            38.337448
          ],
          [
            114.2105009,
            38.340818
          ],
          [
            114.2270905,
            38.3481174
          ],
          [
            114.2355467,
            38.3499564
          ],
          [
            114.251733,
            38.356049
          ],
          [
            114.3415904,
            38.3717848
          ],
          [
            114.4780509,
            38.4225519
          ],
          [
            114.4955247,
            38.4343033
          ],
          [
            114.5008703,
            38.436288
          ],
          [
            114.5528577,
            38.4475077
          ],
          [
            114.6017824,
            38.4499985
          ],
          [
            114.6059056,
            38.4519006
          ],
          [
            114.6626208,
            38.4908092
          ],
          [
            114.6935856,
            38.488425
          ],
          [
            114.7238892,
            38.4949384
          ],
          [
            114.9106553,
            38.4897152
          ],
          [
            114.9530445,
            38.4875384
          ],
          [
            114.9888861,
            38.4914545
          ],
          [
            115.0419027,
            38.4757873
          ],
          [
            115.0968263,
            38.4706068
          ],
          [
            115.1848711,
            38.4479487
          ],
          [
            115.2697872,
            38.4427883
          ],
          [
            115.332986,
            38.4413619
          ],
          [
            115.3638716,
            38.4305724
          ],
          [
            115.4995763,
            38.4462577
          ],
          [
            115.5429056,
            38.4610003
          ],
          [
            115.5919204,
            38.4653039
          ],
          [
            115.5987982,
            38.4639922
          ],
          [
            115.6232319,
            38.4484642
          ],
          [
            115.6286951,
            38.4468342
          ],
          [
            115.6603396,
            38.4454969
          ],
          [
            115.67696,
            38.4498182
          ],
          [
            115.7958536,
            38.4436529
          ],
          [
            115.8621423,
            38.4458271
          ],
          [
            115.8923911,
            38.4541529
          ],
          [
            115.9182915,
            38.4498705
          ],
          [
            115.9759511,
            38.4453292
          ],
          [
            115.9991375,
            38.4480664
          ],
          [
            116.0289153,
            38.4492017
          ],
          [
            116.0914779,
            38.4600285
          ],
          [
            116.1097866,
            38.4618389
          ],
          [
            116.1883261,
            38.4600251
          ],
          [
            116.3099574,
            38.4468683
          ],
          [
            116.3634029,
            38.4441969
          ],
          [
            116.3911694,
            38.4396857
          ],
          [
            116.4055082,
            38.4389364
          ],
          [
            116.4246753,
            38.4327974
          ],
          [
            116.457208,
            38.4140535
          ],
          [
            116.502049,
            38.4040006
          ],
          [
            116.5525706,
            38.3903305
          ],
          [
            116.6012032,
            38.388501
          ],
          [
            116.6490851,
            38.389211
          ],
          [
            116.6624504,
            38.3863529
          ],
          [
            116.6881084,
            38.3870992
          ],
          [
            116.7245736,
            38.3820258
          ],
          [
            116.7734255,
            38.3720143
          ],
          [
            116.8727479,
            38.3687338
          ],
          [
            116.8835955,
            38.3653861
          ],
          [
            116.9162261,
            38.3603732
          ],
          [
            116.9204579,
            38.3586014
          ],
          [
            116.9266996,
            38.3530763
          ],
          [
            116.9309295,
            38.3510566
          ],
          [
            116.9932741,
            38.3340519
          ],
          [
            117.0207319,
            38.329847
          ],
          [
            117.0331522,
            38.3257068
          ],
          [
            117.0384029,
            38.3259439
          ],
          [
            117.1578075,
            38.3522067
          ],
          [
            117.1952847,
            38.3415615
          ],
          [
            117.2154039,
            38.3379515
          ],
          [
            117.2315491,
            38.338453
          ],
          [
            117.2791616,
            38.3354686
          ],
          [
            117.3928119,
            38.3235077
          ],
          [
            117.4699187,
            38.3220931
          ],
          [
            117.4825238,
            38.3180107
          ],
          [
            117.5121798,
            38.3159646
          ],
          [
            117.57123,
            38.3014384
          ],
          [
            117.6063136,
            38.2882404
          ],
          [
            117.6603138,
            38.2903724
          ],
          [
            117.7302177,
            38.277681
          ],
          [
            117.7602598,
            38.2833869
          ],
          [
            117.7943907,
            38.2832543
          ]
        ]
      }
    },
    {
      "type": "Feature",
      "properties": {
        "sectionName": "朔黄铁路全线",
        "direction": "down",
        "sectionId": "SHH-FULL-DOWN",
        "lengthKm": 618.4
      },
      "geometry": {
        "type": "LineString",
        "coordinates": [
          [
            111.76,
            39.075
          ],
          [
            112.1967639,
            39.0650326
          ],
          [
            112.2068071,
            39.069938
          ],
          [
            112.2128713,
            39.0701963
          ],
          [
            112.2230215,
            39.0650335
          ],
          [
            112.2305629,
            39.0632104
          ],
          [
            112.237294,
            39.0641689
          ],
          [
            112.2432458,
            39.0636151
          ],
          [
            112.2581986,
            39.0532958
          ],
          [
            112.2689861,
            39.0399921
          ],
          [
            112.2701071,
            39.032130699999996
          ],
          [
            112.2802302,
            39.019309899999996
          ],
          [
            112.2824588,
            39.0069103
          ],
          [
            112.287818,
            38.9998186
          ],
          [
            112.2914172,
            38.9918174
          ],
          [
            112.2885373,
            38.9843919
          ],
          [
            112.280687,
            38.9719921
          ],
          [
            112.2807527,
            38.9696056
          ],
          [
            112.283062,
            38.967602
          ],
          [
            112.2894363,
            38.9679016
          ],
          [
            112.2950257,
            38.9706907
          ],
          [
            112.3062152,
            38.9712368
          ],
          [
            112.4054185,
            38.9378704
          ],
          [
            112.448051,
            38.9324725
          ],
          [
            112.4509393,
            38.9306072
          ],
          [
            112.4549086,
            38.9231583
          ],
          [
            112.4669977,
            38.915721
          ],
          [
            112.4740788,
            38.9165389
          ],
          [
            112.4901786,
            38.9243131
          ],
          [
            112.4920651,
            38.9270254
          ],
          [
            112.4915931,
            38.9339679
          ],
          [
            112.4928791,
            38.9376024
          ],
          [
            112.4980029,
            38.9386197
          ],
          [
            112.5028434,
            38.9361466
          ],
          [
            112.5044646,
            38.933434399999996
          ],
          [
            112.5039242,
            38.9310177
          ],
          [
            112.4876835,
            38.9095703
          ],
          [
            112.4831095,
            38.9051409
          ],
          [
            112.4822584,
            38.896054
          ],
          [
            112.4831263,
            38.8930509
          ],
          [
            112.5138999,
            38.8718088
          ],
          [
            112.5235681,
            38.8704392
          ],
          [
            112.5316163,
            38.8621196
          ],
          [
            112.5433843,
            38.8577096
          ],
          [
            112.5496952,
            38.8513903
          ],
          [
            112.5638904,
            38.8494013
          ],
          [
            112.5685363,
            38.8470574
          ],
          [
            112.5703576,
            38.844358899999996
          ],
          [
            112.5698685,
            38.8391915
          ],
          [
            112.5725245,
            38.8362629
          ],
          [
            112.592256,
            38.8303133
          ],
          [
            112.595159,
            38.8307865
          ],
          [
            112.600889,
            38.8348745
          ],
          [
            112.606901,
            38.8366175
          ],
          [
            112.6124841,
            38.8349337
          ],
          [
            112.6136739,
            38.8324428
          ],
          [
            112.6131592,
            38.830287
          ],
          [
            112.6078764,
            38.8256861
          ],
          [
            112.6040873,
            38.8205852
          ],
          [
            112.6010156,
            38.8192377
          ],
          [
            112.5934796,
            38.8194283
          ],
          [
            112.5857977,
            38.8136433
          ],
          [
            112.5862196,
            38.8100209
          ],
          [
            112.5908442,
            38.8068585
          ],
          [
            112.5946157,
            38.8024707
          ],
          [
            112.5985851,
            38.7895618
          ],
          [
            112.6047256,
            38.7851547
          ],
          [
            112.6078279,
            38.777835599999996
          ],
          [
            112.6170082,
            38.7708508
          ],
          [
            112.6213918,
            38.7657448
          ],
          [
            112.6221252,
            38.7575496
          ],
          [
            112.6233813,
            38.7550717
          ],
          [
            112.6469029,
            38.7426014
          ],
          [
            112.6570928,
            38.734283
          ],
          [
            112.6601252,
            38.7138829
          ],
          [
            112.6778567,
            38.689768199999996
          ],
          [
            112.690192,
            38.6644366
          ],
          [
            112.7045494,
            38.6439722
          ],
          [
            112.7066261,
            38.6390628
          ],
          [
            112.7089809,
            38.6373814
          ],
          [
            112.7285131,
            38.6319229
          ],
          [
            112.7460621,
            38.6118733
          ],
          [
            112.7489721,
            38.6098838
          ],
          [
            112.7597474,
            38.6054013
          ],
          [
            112.7743631,
            38.6028806
          ],
          [
            112.7826123,
            38.599573
          ],
          [
            112.7910796,
            38.6006065
          ],
          [
            112.7974407,
            38.5997968
          ],
          [
            112.8193799,
            38.5907774
          ],
          [
            112.8334117,
            38.5794325
          ],
          [
            112.8527068,
            38.5702162
          ],
          [
            112.8961177,
            38.5534691
          ],
          [
            112.9003218,
            38.552753
          ],
          [
            112.9629712,
            38.5645077
          ],
          [
            113.0439052,
            38.5952485
          ],
          [
            113.0627923,
            38.6073702
          ],
          [
            113.0716372,
            38.615624
          ],
          [
            113.0822012,
            38.6184665
          ],
          [
            113.0895711,
            38.622557
          ],
          [
            113.1339826,
            38.6289034
          ],
          [
            113.1389975,
            38.6284675
          ],
          [
            113.1728142,
            38.6027719
          ],
          [
            113.1851654,
            38.597663
          ],
          [
            113.1901314,
            38.5931823
          ],
          [
            113.1922571,
            38.5853799
          ],
          [
            113.1945531,
            38.5828812
          ],
          [
            113.20702,
            38.5757955
          ],
          [
            113.216382,
            38.5730789
          ],
          [
            113.2293467,
            38.5656148
          ],
          [
            113.231387,
            38.563727899999996
          ],
          [
            113.2327914,
            38.5584743
          ],
          [
            113.2349823,
            38.5557475
          ],
          [
            113.2425978,
            38.5514612
          ],
          [
            113.2470885,
            38.5185972
          ],
          [
            113.2491059,
            38.513965
          ],
          [
            113.2530474,
            38.5107938
          ],
          [
            113.267226,
            38.5084156
          ],
          [
            113.276599,
            38.501651
          ],
          [
            113.2837818,
            38.4981393
          ],
          [
            113.2870035,
            38.4895792
          ],
          [
            113.3125811,
            38.4403814
          ],
          [
            113.312282,
            38.4368883
          ],
          [
            113.3044177,
            38.4315194
          ],
          [
            113.3023816,
            38.4280227
          ],
          [
            113.3029397,
            38.422249199999996
          ],
          [
            113.3059934,
            38.418874
          ],
          [
            113.3343891,
            38.4156111
          ],
          [
            113.3409684,
            38.4163529
          ],
          [
            113.3482855,
            38.4188406
          ],
          [
            113.3514289,
            38.4220294
          ],
          [
            113.3557982,
            38.4407548
          ],
          [
            113.3587758,
            38.4432774
          ],
          [
            113.3621053,
            38.4434111
          ],
          [
            113.3716744,
            38.440184099999996
          ],
          [
            113.3810728,
            38.4410242
          ],
          [
            113.3836692,
            38.4389406
          ],
          [
            113.3871668,
            38.4325213
          ],
          [
            113.3935193,
            38.4291106
          ],
          [
            113.4182033,
            38.4283007
          ],
          [
            113.4319043,
            38.4258222
          ],
          [
            113.4762317,
            38.4221421
          ],
          [
            113.4869865,
            38.4179334
          ],
          [
            113.496185,
            38.4193103
          ],
          [
            113.5091469,
            38.4164862
          ],
          [
            113.525816,
            38.4153233
          ],
          [
            113.5327147,
            38.4104591
          ],
          [
            113.551577,
            38.4077896
          ],
          [
            113.5658764,
            38.4030186
          ],
          [
            113.5746545,
            38.4034372
          ],
          [
            113.5927837,
            38.4009697
          ],
          [
            113.6027084,
            38.3929049
          ],
          [
            113.6144626,
            38.3930445
          ],
          [
            113.6211962,
            38.3894558
          ],
          [
            113.6463234,
            38.3820231
          ],
          [
            113.6967697,
            38.3692404
          ],
          [
            113.7083573,
            38.3710942
          ],
          [
            113.7183345,
            38.3780109
          ],
          [
            113.7280829,
            38.3804558
          ],
          [
            113.7459988,
            38.3754188
          ],
          [
            113.7537255,
            38.3755326
          ],
          [
            113.7641806,
            38.3720514
          ],
          [
            113.7898915,
            38.3598642
          ],
          [
            113.8270216,
            38.3517844
          ],
          [
            113.8328184,
            38.3493925
          ],
          [
            113.8411973,
            38.3427534
          ],
          [
            113.8530942,
            38.3289817
          ],
          [
            113.8536169,
            38.3143828
          ],
          [
            113.8498672,
            38.3066614
          ],
          [
            113.8573553,
            38.2967096
          ],
          [
            113.8575182,
            38.2875635
          ],
          [
            113.8587024,
            38.2848487
          ],
          [
            113.8679849,
            38.2763479
          ],
          [
            113.8737177,
            38.2747093
          ],
          [
            113.8957054,
            38.2735793
          ],
          [
            113.913377,
            38.2701001
          ],
          [
            113.9162362,
            38.268459299999996
          ],
          [
            113.9203224,
            38.2633033
          ],
          [
            113.9276667,
            38.2591591
          ],
          [
            113.9384029,
            38.2578935
          ],
          [
            113.95092,
            38.2590531
          ],
          [
            113.9670492,
            38.2516856
          ],
          [
            113.9691115,
            38.2498366
          ],
          [
            113.9721121,
            38.2429806
          ],
          [
            113.9777778,
            38.2399659
          ],
          [
            113.9975957,
            38.2397853
          ],
          [
            114.0186706,
            38.2364291
          ],
          [
            114.0531307,
            38.2442592
          ],
          [
            114.0617031,
            38.2485093
          ],
          [
            114.1311746,
            38.2450098
          ],
          [
            114.1490002,
            38.2463384
          ],
          [
            114.1639021,
            38.2489544
          ],
          [
            114.1687262,
            38.252195
          ],
          [
            114.1858997,
            38.2907719
          ],
          [
            114.206965,
            38.322448
          ],
          [
            114.2105009,
            38.325818
          ],
          [
            114.2270905,
            38.3331174
          ],
          [
            114.2355467,
            38.3349564
          ],
          [
            114.251733,
            38.341049
          ],
          [
            114.3415904,
            38.3567848
          ],
          [
            114.4780509,
            38.4075519
          ],
          [
            114.4955247,
            38.4193033
          ],
          [
            114.5008703,
            38.421288
          ],
          [
            114.5528577,
            38.4325077
          ],
          [
            114.6017824,
            38.4349985
          ],
          [
            114.6059056,
            38.4369006
          ],
          [
            114.6626208,
            38.4758092
          ],
          [
            114.6935856,
            38.473425
          ],
          [
            114.7238892,
            38.4799384
          ],
          [
            114.9106553,
            38.4747152
          ],
          [
            114.9530445,
            38.4725384
          ],
          [
            114.9888861,
            38.4764545
          ],
          [
            115.0419027,
            38.4607873
          ],
          [
            115.0968263,
            38.4556068
          ],
          [
            115.1848711,
            38.4329487
          ],
          [
            115.2697872,
            38.427788299999996
          ],
          [
            115.332986,
            38.426361899999996
          ],
          [
            115.3638716,
            38.4155724
          ],
          [
            115.4995763,
            38.431257699999996
          ],
          [
            115.5429056,
            38.4460003
          ],
          [
            115.5919204,
            38.4503039
          ],
          [
            115.5987982,
            38.4489922
          ],
          [
            115.6232319,
            38.433464199999996
          ],
          [
            115.6286951,
            38.4318342
          ],
          [
            115.6603396,
            38.4304969
          ],
          [
            115.67696,
            38.4348182
          ],
          [
            115.7958536,
            38.428652899999996
          ],
          [
            115.8621423,
            38.4308271
          ],
          [
            115.8923911,
            38.439152899999996
          ],
          [
            115.9182915,
            38.4348705
          ],
          [
            115.9759511,
            38.4303292
          ],
          [
            115.9991375,
            38.4330664
          ],
          [
            116.0289153,
            38.4342017
          ],
          [
            116.0914779,
            38.4450285
          ],
          [
            116.1097866,
            38.446838899999996
          ],
          [
            116.1883261,
            38.4450251
          ],
          [
            116.3099574,
            38.4318683
          ],
          [
            116.3634029,
            38.4291969
          ],
          [
            116.3911694,
            38.4246857
          ],
          [
            116.4055082,
            38.4239364
          ],
          [
            116.4246753,
            38.4177974
          ],
          [
            116.457208,
            38.3990535
          ],
          [
            116.502049,
            38.3890006
          ],
          [
            116.5525706,
            38.3753305
          ],
          [
            116.6012032,
            38.373501
          ],
          [
            116.6490851,
            38.374211
          ],
          [
            116.6624504,
            38.3713529
          ],
          [
            116.6881084,
            38.3720992
          ],
          [
            116.7245736,
            38.3670258
          ],
          [
            116.7734255,
            38.357014299999996
          ],
          [
            116.8727479,
            38.3537338
          ],
          [
            116.8835955,
            38.3503861
          ],
          [
            116.9162261,
            38.3453732
          ],
          [
            116.9204579,
            38.3436014
          ],
          [
            116.9266996,
            38.3380763
          ],
          [
            116.9309295,
            38.3360566
          ],
          [
            116.9932741,
            38.3190519
          ],
          [
            117.0207319,
            38.314847
          ],
          [
            117.0331522,
            38.3107068
          ],
          [
            117.0384029,
            38.3109439
          ],
          [
            117.1578075,
            38.3372067
          ],
          [
            117.1952847,
            38.3265615
          ],
          [
            117.2154039,
            38.3229515
          ],
          [
            117.2315491,
            38.323453
          ],
          [
            117.2791616,
            38.3204686
          ],
          [
            117.3928119,
            38.3085077
          ],
          [
            117.4699187,
            38.307093099999996
          ],
          [
            117.4825238,
            38.3030107
          ],
          [
            117.5121798,
            38.3009646
          ],
          [
            117.57123,
            38.2864384
          ],
          [
            117.6063136,
            38.2732404
          ],
          [
            117.6603138,
            38.2753724
          ],
          [
            117.7302177,
            38.262681
          ],
          [
            117.7602598,
            38.2683869
          ],
          [
            117.7943907,
            38.2682543
          ]
        ]
      }
    }
  ]
}